SKYSAT-A                
1 39418U 13066C   26200.39814561  .00001439  00000+0  84470-4 0  9991
2 39418  97.3798 248.7687 0020863 198.3581 161.6900 15.13127903693357
SKYSAT-B                
1 40072U 14037D   26200.87200220  .00000570  00000+0  68683-4 0  9995
2 40072  98.3857 161.7057 0005930 158.4103 201.7363 14.88098127650822
SKYSAT-C1               
1 41601U 16040C   26200.84284056  .00004760  00000+0  13448-3 0  9999
2 41601  96.9552 230.8008 0000566 200.2206 159.9017 15.36793049562888
SKYSAT-C4               
1 41771U 16058B   26200.30766369  .00009565  00000+0  17513-3 0  9994
2 41771  96.9170 220.7540 0003540 112.6543 247.5084 15.49519373550443
SKYSAT-C5               
1 41772U 16058C   26200.58255279  .00003644  00000+0  11390-3 0  9997
2 41772  97.0451 239.7652 0003020 149.7638 210.3781 15.33753019548710
SKYSAT-C2               
1 41773U 16058D   26200.04838939  .00006875  00000+0  15928-3 0  9999
2 41773  97.0161 220.9571 0000917 329.4128  30.7067 15.42733343549961
SKYSAT-C3               
1 41774U 16058E   26200.54919936  .00013552  00000+0  21226-3 0  9990
2 41774  96.8996 230.1770 0002738 128.5680 231.5820 15.53830199551132
SKYSAT-C11              
1 42987U 17068A   26200.41278457  .00017128  00000+0  21760-3 0  9997
2 42987  97.4390 350.6929 0001420 153.6625 206.4704 15.59473968488261
SKYSAT-C10              
1 42988U 17068B   26200.82328991  .00005958  00000+0  17695-3 0  9992
2 42988  97.4545 338.0081 0001542 111.1835 248.9573 15.35171574487367
SKYSAT-C9               
1 42989U 17068C   26200.81628220  .00006975  00000+0  16403-3 0  9996
2 42989  97.4468 339.2528 0008235  29.6633 330.5080 15.42280897487780
SKYSAT-C8               
1 42990U 17068D   26200.35395888  .00005485  00000+0  15124-3 0  9992
2 42990  97.4564 337.4574 0001274 105.5249 254.6137 15.37539120487254
SKYSAT-C7               
1 42991U 17068E   26200.34857435  .00005447  00000+0  15041-3 0  9999
2 42991  97.4574 338.4439 0005321   7.1365 352.9954 15.37488793487315
SKYSAT-C6               
1 42992U 17068F   26200.82385339  .00004976  00000+0  15267-3 0  9998
2 42992  97.4612 338.7587 0004985  77.3310 282.8489 15.34215968487324
SKYSAT-C12              
1 43797U 18099AR  26200.32159478  .00009467  00000+0  17119-3 0  9993
2 43797  96.9255 222.2860 0005029  61.0315 299.1441 15.49872022426835
